*******************************************************************************
JPL/HORIZONS                 1041 Asta (1925 FA)           2023-Sep-04 11:09:51
Rec #:    1041 (+COV) Soln.date: 2023-Aug-21_11:52:27   # obs: 8460 (1906-2023)
 
IAU76/J2000 helio. ecliptic osc. elements (au, days, deg., period=Julian yrs):
 
  EPOCH=  2457553.5 ! 2016-Jun-14.00 (TDB)         Residual RMS= .2322
   EC= .1409802385098947   QR= 2.644917030439035   TP= 2456883.1896992312
   OM= 60.10603958201342   W=  343.6501240835282   IN= 13.90099517424601
   A= 3.078994394553868    MA= 122.2831506378892   ADIST= 3.513071758668701
   PER= 5.40283            N= .182427676           ANGMOM= .029883161
   DAN= 2.6582             DDN= 3.48991            L= 44.2104837
   B= -3.8778418           MOID= 1.65788996        TP= 2014-Aug-13.6896992312
 
Asteroid physical parameters (km, seconds, rotational period in hours):
   GM= n.a.                RAD= 30.2855            ROTPER= 7.978
   H= 10.16                G= .150                 B-V= n.a.
                           ALBEDO= .047            STYP= C

ASTEROID comments: 
1: soln ref.= JPL#57, OCC=0
2: source=ORB
*******************************************************************************


*******************************************************************************
Ephemeris / API_USER Mon Sep  4 11:09:52 2023 Pasadena, USA      / Horizons
*******************************************************************************
Target body name: 1041 Asta (1925 FA)             {source: JPL#57}
Center body name: Solar System Barycenter (0)     {source: DE441}
Center-site name: BODY CENTER
*******************************************************************************
Start time      : A.D. 2023-Aug-12 00:00:00.0000 TDB
Stop  time      : A.D. 2023-Aug-13 00:00:00.0000 TDB
Step-size       : 2880 minutes
*******************************************************************************
Center geodetic : 0.0, 0.0, 0.0                   {E-lon(deg),Lat(deg),Alt(km)}
Center cylindric: 0.0, 0.0, 0.0                   {E-lon(deg),Dxy(km),Dz(km)}
Center radii    : (undefined)
Small perturbers: Yes                             {source: SB441-N16}
Output units    : KM-S
Calendar mode   : Mixed Julian/Gregorian
Output type     : GEOMETRIC cartesian states
Output format   : 2 (position and velocity)
Reference frame : Ecliptic of J2000.0
*******************************************************************************
Initial IAU76/J2000 heliocentric ecliptic osculating elements (au, days, deg.):
  EPOCH=  2457553.5 ! 2016-Jun-14.00 (TDB)         Residual RMS= .2322         
   EC= .1409802385098947   QR= 2.644917030439035   TP= 2456883.1896992312      
   OM= 60.10603958201342   W=  343.6501240835282   IN= 13.90099517424601       
  Equivalent ICRF heliocentric cartesian coordinates (au, au/d):
   X=-3.273639230838359E+00  Y=-2.367258162856816E-01  Z= 6.695535520996753E-01
  VX=-1.323246470577183E-03 VY=-7.790786856886136E-03 VZ=-4.256908353417239E-03
Asteroid physical parameters (km, seconds, rotational period in hours):        
   GM= n.a.                RAD= 30.2855            ROTPER= 7.978               
   H= 10.16                G= .150                 B-V= n.a.                   
                           ALBEDO= .047            STYP= C                     
*******************************************************************************
JDTDB
   X     Y     Z
   VX    VY    VZ
*******************************************************************************
$$SOE
2460168.500000000 = A.D. 2023-Aug-12 00:00:00.0000 TDB 
 X = 2.306221959830225E+06 Y =-4.956566938644657E+08 Z =-6.226232211261591E+07
 VX= 1.512419981742014E+01 VY= 2.308975477306893E+00 VZ=-2.960281727710308E+00
$$EOE
*******************************************************************************
 
TIME

  Barycentric Dynamical Time ("TDB" or T_eph) output was requested. This
continuous coordinate time is equivalent to the relativistic proper time
of a clock at rest in a reference frame co-moving with the solar system
barycenter but outside the system's gravity well. It is the independent
variable in the solar system relativistic equations of motion.

  TDB runs at a uniform rate of one SI second per second and is independent
of irregularities in Earth's rotation.
 
CALENDAR SYSTEM

  Mixed calendar mode was active such that calendar dates after AD 1582-Oct-15
(if any) are in the modern Gregorian system. Dates prior to 1582-Oct-5 (if any)
are in the Julian calendar system, which is automatically extended for dates
prior to its adoption on 45-Jan-1 BC.  The Julian calendar is useful for
matching historical dates. The Gregorian calendar more accurately corresponds
to the Earth's orbital motion and seasons. A "Gregorian-only" calendar mode is
available if such physical events are the primary interest.

REFERENCE FRAME AND COORDINATES

  Ecliptic at the standard reference epoch

    Reference epoch: J2000.0
    X-Y plane: adopted Earth orbital plane at the reference epoch
               Note: IAU76 obliquity of 84381.448 arcseconds wrt ICRF X-Y plane
    X-axis   : ICRF
    Z-axis   : perpendicular to the X-Y plane in the directional (+ or -) sense
               of Earth's north pole at the reference epoch.

  Symbol meaning:

    JDTDB    Julian Day Number, Barycentric Dynamical Time
      X      X-component of position vector (km)
      Y      Y-component of position vector (km)
      Z      Z-component of position vector (km)
      VX     X-component of velocity vector (km/sec)                           
      VY     Y-component of velocity vector (km/sec)                           
      VZ     Z-component of velocity vector (km/sec)                           

ABERRATIONS AND CORRECTIONS

 Geometric state vectors have NO corrections or aberrations applied.

Computations by ...

    Solar System Dynamics Group, Horizons On-Line Ephemeris System
    4800 Oak Grove Drive, Jet Propulsion Laboratory
    Pasadena, CA  91109   USA

    General site: https://ssd.jpl.nasa.gov/
    Mailing list: https://ssd.jpl.nasa.gov/email_list.html
    System news : https://ssd.jpl.nasa.gov/horizons/news.html
    User Guide  : https://ssd.jpl.nasa.gov/horizons/manual.html
    Connect     : browser        https://ssd.jpl.nasa.gov/horizons/app.html#/x
                  API            https://ssd-api.jpl.nasa.gov/doc/horizons.html
                  command-line   telnet ssd.jpl.nasa.gov 6775
                  e-mail/batch   https://ssd.jpl.nasa.gov/ftp/ssd/hrzn_batch.txt
                  scripts        https://ssd.jpl.nasa.gov/ftp/ssd/SCRIPTS
    Author      : Jon.D.Giorgini@jpl.nasa.gov
*******************************************************************************
